METEOR-M 1              
1 35865U 09049A   23011.61844437  .00000197  00000+0  10763-3 0  9999
2 35865  98.5586 340.6801 0002284  10.2684 349.8540 14.22398210691279
DMSP 5D-3 F18 (USA 210) 
1 35951U 09057A   23011.78916422  .00000353  00000+0  21019-3 0  9996
2 35951  98.7490 351.3148 0010456 209.5134 150.5449 14.13623119682541
GOES 15                 
1 36411U 10008A   23011.74449131  .00000071  00000+0  00000+0 0  9990
2 36411   0.0464 291.0949 0003074 267.9341  51.9481  1.00266326 47095
COMS 1                  
1 36744U 10032A   23011.41160705 -.00000329  00000+0  00000+0 0  9994
2 36744   1.5979  91.3710 0001002 201.9590  93.6690  1.00271175 38522
FENGYUN 3B              
1 37214U 10059A   23011.77276835  .00000086  00000+0  69141-4 0  9992
2 37214  99.0908  26.4377 0023037 126.1771 234.1525 14.14284314630400
SUOMI NPP               
1 37849U 11061A   23011.82775514  .00000133  00000+0  83823-4 0  9990
2 37849  98.7551 312.6762 0001327  79.9522 302.9154 14.19534129580749
FENGYUN 2F              
1 38049U 12002A   23011.63257325 -.00000343  00000+0  00000+0 0  9998
2 38049   4.3003  78.0638 0001341 276.3858  96.2573  1.00276316 40323
METEOSAT-10 (MSG-3)     
1 38552U 12035B   23011.77186110  .00000080  00000+0  00000+0 0  9998
2 38552   1.8699  51.0352 0001003 207.1218 140.3845  1.00277950 38668
METOP-B                 
1 38771U 12049A   23011.77295534  .00000175  00000+0  99992-4 0  9995
2 38771  98.7028  73.5909 0001541 115.2025 346.1679 14.21495245535323
FENGYUN 3C              
1 39260U 13052A   23011.72913594  .00000129  00000+0  85948-4 0  9997
2 39260  98.4381  34.1232 0011887  38.8952 321.3065 14.15975275481391
METEOR-M 2              
1 40069U 14037A   23011.78667935  .00000069  00000+0  51092-4 0  9997
2 40069  98.4254  25.0134 0006888  79.5854 280.6081 14.20734913441442
HIMAWARI-8              
1 40267U 14060A   23011.59765416 -.00000260  00000+0  00000+0 0  9997
2 40267   0.0129 273.7577 0001252  45.0064 147.8936  1.00267222 30205
FENGYUN 2G              
1 40367U 14090A   23011.62691456 -.00000289  00000+0  00000+0 0  9998
2 40367   2.4565  87.3591 0000923 252.6127  96.3553  1.00277351 29431
METEOSAT-11 (MSG-4)     
1 40732U 15034A   23011.33968066  .00000015  00000+0  00000+0 0  9991
2 40732   0.4642   2.1981 0000663  64.8052 166.1610  1.00277215 27459
ELEKTRO-L 2             
1 41105U 15074A   23011.89632821 -.00000101  00000+0  00000+0 0  9995
2 41105   3.5123  85.6932 0002474 165.5147 168.1139  1.00270813 25958
HIMAWARI-9              
1 41836U 16064A   23011.72627382 -.00000258  00000+0  00000+0 0  9997
2 41836   0.0377 180.8631 0001372 140.3150 191.9930  1.00271667 22742
GOES 16                 
1 41866U 16071A   23011.53981135 -.00000232  00000+0  00000+0 0  9998
2 41866   0.0770 250.9768 0000850  71.6684 267.2727  1.00271998 22557
FENGYUN 4A              
1 41882U 16077A   23011.62878958 -.00000314  00000+0  00000+0 0  9991
2 41882   0.0573  53.3092 0005592 356.9994  31.6118  1.00271575 22426
CYGFM05                 
1 41884U 16078A   23011.21659902  .00006185  00000+0  29967-3 0  9993
2 41884  34.9572 346.6518 0014194 158.4885 201.6425 15.17790175336351
CYGFM04                 
1 41885U 16078B   23011.58846000  .00007015  00000+0  33421-3 0  9994
2 41885  34.9503 332.3694 0013135 181.4667 178.6009 15.18358560336621
CYGFM02                 
1 41886U 16078C   23011.57393262  .00006488  00000+0  30881-3 0  9991
2 41886  34.9595 334.7356 0013623 174.8157 185.2698 15.18400704336543
CYGFM01                 
1 41887U 16078D   23011.04822833  .00006472  00000+0  31530-3 0  9990
2 41887  34.9541 350.4358 0014651 155.5466 204.5943 15.17583914336275
CYGFM08                 
1 41888U 16078E   23011.09831656  .00006740  00000+0  32358-3 0  9996
2 41888  34.9512 341.7682 0014056 169.7314 190.3688 15.18087688336428
CYGFM07                 
1 41890U 16078G   23011.01995692  .00006646  00000+0  31699-3 0  9994
2 41890  34.9533 335.7146 0012474 174.8138 185.2705 15.18336484336384
CYGFM03                 
1 41891U 16078H   23011.08420809  .00006697  00000+0  31942-3 0  9992
2 41891  34.9563 335.8349 0012015 173.3543 186.7331 15.18340465336384
FENGYUN 3D              
1 43010U 17072A   23011.75810238  .00000119  00000+0  78222-4 0  9991
2 43010  98.8417 320.5530 0002298  55.0208 305.1192 14.19126706267313
NOAA 20                 
1 43013U 17073A   23011.78700940  .00000140  00000+0  87185-4 0  9998
2 43013  98.7389 312.2654 0001283 110.6340 249.4974 14.19543563266788
GOES 17                 
1 43226U 18022A   23010.68452196  .00000113  00000+0  00000+0 0  9990
2 43226   0.0067 160.8990 0000528 160.1134 258.0183  1.00273520 17865
FENGYUN 2H              
1 43491U 18050A   23011.52283633 -.00000114  00000+0  00000+0 0  9999
2 43491   1.6750  93.5241 0002034  75.3549 209.4162  1.00273901 16877
METOP-C                 
1 43689U 18087A   23011.71927684  .00000169  00000+0  97145-4 0  9990
2 43689  98.7074  73.5955 0003852 142.4201 217.7246 14.21501019216892
GEO-KOMPSAT-2A          
1 43823U 18100A   23010.05674359 -.00000330  00000+0  00000+0 0  9990
2 43823   0.0397 135.3022 0000505 245.0319 237.6546  1.00270205 15041
METEOR-M2 2             
1 44387U 19038A   23011.80746022  .00000040  00000+0  37150-4 0  9996
2 44387  98.7527 336.2185 0002168  54.8952 305.2427 14.23739373183056
FENGYUN 3E              
1 49008U 21062A   23011.76661251  .00000027  00000+0  33308-4 0  9992
2 49008  98.7171  15.5026 0002877 100.7587 259.3919 14.19752344 78875
GOES 18                 
1 51850U 22021A   23007.79750510  .00000109  00000+0  00000+0 0  9990
2 51850   0.0091 273.9665 0000967   4.0073 339.2774  1.00272787  3209
NOAA 21 (JPSS-2)        
1 54234U 22150A   23011.59332699  .00000153  00000+0  93073-4 0  9995
2 54234  98.7029 312.1210 0001125  85.6537 274.4768 14.19554097  8830
METEOSAT-12             
1 54743U 22170C   23011.55401922 -.00000013  00000+0  00000+0 0  9993
2 54743   0.9363 298.5958 0000317 142.9151 225.3348  1.00273012   414
GALAXY 35 (G-35)        
1 54741U 22170A   23011.50410294  .00000149  00000+0  00000+0 0  9997
2 54741   0.0281 217.0793 0002313 150.9528 134.1307  1.00272723   331
GALAXY 36 (G-36)        
1 54742U 22170B   23011.50410351  .00000149  00000+0  00000+0 0  9992
2 54742   0.0167  88.4264 0001987 186.1329 227.6956  1.00272715   210
METEOSAT-12 (MTG-1)     
1 54743U 22170C   23011.55401922 -.00000013  00000+0  00000+0 0  9993
2 54743   0.9363 298.5958 0000317 142.9151 225.3348  1.00273012   414
ARIANE 5 DEB [SYLDA]    
1 54744U 22170D   23010.95133407  .00025161  00000+0  61274-2 0  9990
2 54744   5.9476 207.2210 7272451 201.2620  96.6988  2.29552542   644
ARIANE 5 R/B            
1 54745U 22170E   23011.72117594  .00005229  00000+0  95577-3 0  9993
2 54745   5.6989 208.7364 7275773 199.9652 100.8182  2.29868528   665
2022-171A               
1 54746U 22171A   23011.83969119 -.00000037  00000+0  00000+0 0  9991
2 54746  34.9940 158.7767 0006662 164.6095 350.5549 15.22536111  4281
2022-171B               
1 54747U 22171B   23011.81565104  .00029905  00000+0  11792-2 0  9993
2 54747  34.9938 158.5929 0005949 159.4598 349.9970 15.24614336  4259
2022-171C               
1 54748U 22171C   23011.68304546 -.00000037  00000+0  00000+0 0  9993
2 54748  34.9939 159.7467 0006870 214.7239 163.3271 15.22472221  4235
2022-171D               
1 54749U 22171D   23011.80793976  .00034490  00000+0  13387-2 0  9991
2 54749  34.9934 158.5341 0006235 171.9076 335.2762 15.25111888  4256
2022-171E               
1 54750U 22171E   23011.78174769 -.00000037  00000+0  00000+0 0  9999
2 54750  34.9958 159.0835 0012377 162.1012  54.4556 15.22580324  4235
SHIYAN 21               
1 54752U 22172A   23011.29127315  .00020138  00000+0  71934-3 0  9994
2 54752  36.0001 352.0257 0013114 179.2330  41.7704 15.27950058  3989
SWOT                    
1 54754U 22173A   23011.22375592  .00134910  00000+0  76186-1 0  9998
2 54754  77.5794 290.7431 0002194  29.6762 329.8544 14.09242606  3620
O3B MPOWER-A F1         
1 54755U 22174A   23010.68750000  .00000038  00000+0  00000+0 0  9993
2 54755   8.0516 224.1725 1643191 247.5837 341.3149  6.83585709  1773
O3B MPOWER-A F2         
1 54756U 22174B   23011.59988288  .00000049  00000+0  00000+0 0  9998
2 54756   9.6146 223.6214 1870927 253.2450  85.4985  7.26306043  1865
FALCON 9 R/B            
1 54757U 22174C   23010.91229556  .00000052  00000+0  19909-2 0  9995
2 54757   9.6171 224.6734 1869366 251.2392  87.6561  7.26306122  1794
STARLINK-5464           
1 54758U 22175A   23011.81926090 -.00401079  00000+0 -31585-2 0  9994
2 54758  53.2131 182.4199 0001355  30.9072 329.2027 15.71930995  2393
STARLINK-5215           
1 54759U 22175B   23011.11963914 -.00047839  00000+0 -34023-3 0  9995
2 54759  53.2159 185.8684 0002777 319.9434  40.1381 15.73066600  5728
STARLINK-5220           
1 54760U 22175C   23011.91667824  .00007047  00000+0  13202-3 0  9997
2 54760  53.2173 182.8006 0001435  51.6934  71.2414 15.49881646  3678
STARLINK-5202           
1 54761U 22175D   23011.91667824  .00054300  00000+0  95901-3 0  9998
2 54761  53.2146 182.8077 0000962  75.8913  45.1536 15.49856270  3676
STARLINK-5214           
1 54762U 22175E   23011.91667824  .00007131  00000+0  13350-3 0  9997
2 54762  53.2173 182.7923 0001219  72.2935  54.7370 15.49881604  3678
STARLINK-5191           
1 54763U 22175F   23011.91667824  .00007119  00000+0  13328-3 0  9999
2 54763  53.2173 182.7954 0001378  55.4863  69.7488 15.49881611  3676
STARLINK-5458           
1 54764U 22175G   23011.58334491 -.00018675  00000+0 -32164-3 0  9994
2 54764  53.2140 184.3801 0001163  96.1628 333.5620 15.49904090  1308
STARLINK-5466           
1 54765U 22175H   23011.91667824  .00007285  00000+0  13621-3 0  9991
2 54765  53.2173 182.7882 0001553  45.3296  83.4875 15.49881527  3692
